{
  "norad_id": 68969,
  "name": "STARLINK-36303",
  "history": [
    {
      "epoch": "2026-05-12T20:00:01.999008Z",
      "apogee_km": 328.14692952298446,
      "perigee_km": 327.7834587840607,
      "latitude_deg": 33.66111707518722,
      "longitude_deg": -169.27405675879564,
      "height_km": 330.17066164227657,
      "semi_major_axis_km": 6706.102194153522,
      "eccentricity": 2.71e-05,
      "inclination_deg": 53.1592,
      "raan_deg": 331.5933,
      "arg_perigee_deg": 91.5179,
      "mean_anomaly_deg": 312.1607,
      "mean_motion_rev_day": 15.80874925
    }
  ]
}