STARLINK-36303          
1 68969U 26099U   26132.83335648  .00013916  00000+0  73917-4 0  9998
2 68969  53.1592 331.5933 0000270  91.5179 312.1607 15.80874925  3038
